[
  
    {
      "N_adherent": "ATLA4440",
      "Code_vendeur": "ADV FRANCE",
      "Nom": "ATLANTIC TRUCK SERVICES",
      "Code_pays_region": "FR",
      "Groupe_compta": "FRANCE",
      "Code_postal": "44470",
      "Telephone": "02 40 25 01 02",
      "Contact": "LUC LEPICIER"
    },
    {
      "N_adherent": "AUBI7900",
      "Code_vendeur": "ADV FRANCE",
      "Nom": "AUBINEAU CONSTRUCTEUR",
      "Code_pays_region": "FR",
      "Groupe_compta": "FRANCE",
      "Code_postal": "79700",
      "Telephone": "05 49 81 42 11",
      "Contact": "MR DE MALEZIEUX"
    },
    {
      "N_adherent": "BAIN2701",
      "Code_vendeur": "OGR",
      "Nom": "CARROSSERIE INDUST BAIN",
      "Code_pays_region": "FR",
      "Groupe_compta": "FRANCE",
      "Code_postal": "27110",
      "Telephone": "02 32 34 03 50",
      "Contact": "GEORGES BAIN"
    },
    {
      "N_adherent": "BARR6201",
      "Code_vendeur": "ADV FRANCE",
      "Nom": "CARROSSERIE BARRE",
      "Code_pays_region": "FR",
      "Groupe_compta": "FRANCE",
      "Code_postal": "62220",
      "Telephone": "03 21 74 74 00",
      "Contact": "YOAN DESTREBECQ"
    },
    {
      "N_adherent": "BAYI7200",
      "Code_vendeur": "OGR",
      "Nom": "SAS BAYI TRUCKS LE MANS",
      "Code_pays_region": "FR",
      "Groupe_compta": "FRANCE",
      "Code_postal": "72028",
      "Telephone": "02 43 50 22 28",
      "Contact": "MR JOUIN"
    },
    {
      "N_adherent": "BIZI2901",
      "Code_vendeur": "OGR",
      "Nom": "THE TRUCK COMPANY FRANCE",
      "Code_pays_region": "FR",
      "Groupe_compta": "FRANCE",
      "Code_postal": "29250",
      "Telephone": "02 98 29 21 00",
      "Contact": "ARNAUD GUIVARC"
    },
    {
      "N_adherent": "BLIN5100",
      "Code_vendeur": "OGR",
      "Nom": "BLIN CARROSSERIE",
      "Code_pays_region": "FR",
      "Groupe_compta": "FRANCE",
      "Code_postal": "51420",
      "Telephone": "0326843232",
      "Contact": ""
    },
    {
      "N_adherent": "BOYR9902",
      "Code_vendeur": "ADV EXPORT",
      "Nom": "BOYRITEC",
      "Code_pays_region": "DE",
      "Groupe_compta": "CEE",
      "Code_postal": "56410",
      "Telephone": "0049 2602 9225",
      "Contact": "ANDREAS KASPAR"
    },
    {
      "N_adherent": "BOYR9904",
      "Code_vendeur": "ADV EXPORT",
      "Nom": "RTS",
      "Code_pays_region": "NL",
      "Groupe_compta": "CEE",
      "Code_postal": "3881 LW",
      "Telephone": "00 31 341375140",
      "Contact": ""
    },
    {
      "N_adherent": "CARF8800",
      "Code_vendeur": "OGR",
      "Nom": "CARFAR",
      "Code_pays_region": "FR",
      "Groupe_compta": "FRANCE",
      "Code_postal": "88300",
      "Telephone": "03 29 94 18 93",
      "Contact": "NICOLAS RENAUT"
    },
    {
      "N_adherent": "CAVI7782",
      "Code_vendeur": "ADV FRANCE",
      "Nom": "CAVIME",
      "Code_pays_region": "FR",
      "Groupe_compta": "FRANCE",
      "Code_postal": "77820",
      "Telephone": "01 60 66 60 35",
      "Contact": "MR GARRIGUE FRANCIS ET HUP"
    },
    {
      "N_adherent": "CHER5006",
      "Code_vendeur": "OGR",
      "Nom": "JEAN CHEREAU SAS",
      "Code_pays_region": "FR",
      "Groupe_compta": "FRANCE",
      "Code_postal": "50220",
      "Telephone": "02 33 58 06 00",
      "Contact": ""
    },
    {
      "N_adherent": "CORS2802",
      "Code_vendeur": "OGR",
      "Nom": "CARROSSERIE CORSIN",
      "Code_pays_region": "FR",
      "Groupe_compta": "FRANCE",
      "Code_postal": "28130",
      "Telephone": "02 37 27 56 56",
      "Contact": ""
    },
    {
      "N_adherent": "DHUM2305",
      "Code_vendeur": "OGR",
      "Nom": "DHUME CARROSSERIE",
      "Code_pays_region": "FR",
      "Groupe_compta": "FRANCE",
      "Code_postal": "23170",
      "Telephone": "05 55 82 11 06",
      "Contact": "FREDERIC DHUME"
    },
    {
      "N_adherent": "DUFI0801",
      "Code_vendeur": "OGR",
      "Nom": "DUFILS CARROSSERIE",
      "Code_pays_region": "FR",
      "Groupe_compta": "FRANCE",
      "Code_postal": "08400",
      "Telephone": "03 24 71 86 08",
      "Contact": "BRUNO ROMAIN"
    },
    {
      "N_adherent": "GROS7605",
      "Code_vendeur": "OGR",
      "Nom": "GROSSE EQUIPEMENT",
      "Code_pays_region": "FR",
      "Groupe_compta": "FRANCE",
      "Code_postal": "76270",
      "Telephone": "02 35 93 09 30",
      "Contact": "FRANÇOIS GROSSE"
    },
    {
      "N_adherent": "ITAL5100",
      "Code_vendeur": "OGR",
      "Nom": "ITAL EXPRESS",
      "Code_pays_region": "FR",
      "Groupe_compta": "FRANCE",
      "Code_postal": "51009",
      "Telephone": "03 26 21 11 00",
      "Contact": "CYRIL DENIS"
    },
    [
      {
        "N_adherent": "LABB2200",
        "Code_vendeur": "OGR",
        "Nom": "CARROSSERIE LABBE",
        "Code_pays_region": "FR",
        "Groupe_compta": "FRANCE",
        "Code_postal": "22405",
        "Telephone": "02 96 50 12 60",
        "Contact": "E CALVAR"
      },
      {
        "N_adherent": "LALO9101",
        "Code_vendeur": "ADV FRANCE",
        "Nom": "SAS LALOYEAU SERVICES",
        "Code_pays_region": "FR",
        "Groupe_compta": "FRANCE",
        "Code_postal": "91150",
        "Telephone": "01 60 86 45 94",
        "Contact": "MR DUBUISSON"
      },
      {
        "N_adherent": "LAMB0109",
        "Code_vendeur": "CTE PRINCIPAL",
        "Nom": "LAMBERT SAS",
        "Code_pays_region": "FR",
        "Groupe_compta": "FRANCE",
        "Code_postal": "01380",
        "Telephone": "03 85 30 85 30",
        "Contact": "EMMANUEL DELGADO"
      },
      {
        "N_adherent": "LANG9500",
        "Code_vendeur": "ADV FRANCE",
        "Nom": "DFCI LANGLAIS",
        "Code_pays_region": "FR",
        "Groupe_compta": "FRANCE",
        "Code_postal": "95640",
        "Telephone": "01 34 67 50 98",
        "Contact": ""
      },
      {
        "N_adherent": "LEBR5004",
        "Code_vendeur": "OGR",
        "Nom": "CARROSSERIE LEBRUN",
        "Code_pays_region": "FR",
        "Groupe_compta": "FRANCE",
        "Code_postal": "50160",
        "Telephone": "02 33 72 00 00",
        "Contact": "TURGIS PHILIPPE"
      },
      {
        "N_adherent": "LECI3800",
        "Code_vendeur": "ADV EXPORT",
        "Nom": "LECTRAILER FRANCE SARL",
        "Code_pays_region": "FR",
        "Groupe_compta": "FRANCE",
        "Code_postal": "38290",
        "Telephone": "04 74 94 21 09",
        "Contact": "Cedric GRAND"
      },
      {
        "N_adherent": "LECI9900",
        "Code_vendeur": "ADV EXPORT",
        "Nom": "LECTRAILER SA",
        "Code_pays_region": "ES",
        "Groupe_compta": "CEE",
        "Code_postal": "50620",
        "Telephone": "00 34 976462121",
        "Contact": "JAVIER AMADOR"
      },
      {
        "N_adherent": "LEMA5914",
        "Code_vendeur": "OGR",
        "Nom": "CARROSSERIE INDUST LEMAIRE",
        "Code_pays_region": "FR",
        "Groupe_compta": "FRANCE",
        "Code_postal": "59119",
        "Telephone": "03 27 88 87 61",
        "Contact": "Jérôme BAJWOULK"
      },
      {
        "N_adherent": "LERO5605",
        "Code_vendeur": "ADV FRANCE",
        "Nom": "LE ROUIC SARL",
        "Code_pays_region": "FR",
        "Groupe_compta": "FRANCE",
        "Code_postal": "56250",
        "Telephone": "02 97 53 33 30",
        "Contact": "MICHEL QUINTIN HERVÉ LEROUIC"
      },
      {
        "N_adherent": "LIBN7903",
        "Code_vendeur": "OGR",
        "Nom": "LIBNER",
        "Code_pays_region": "FR",
        "Groupe_compta": "FRANCE",
        "Code_postal": "79400",
        "Telephone": "05 49 05 78 78",
        "Contact": "achats@libner.fr"
      },
      {
        "N_adherent": "LOCA7200",
        "Code_vendeur": "OGR",
        "Nom": "CRETOT LOCATION",
        "Code_pays_region": "FR",
        "Groupe_compta": "FRANCE",
        "Code_postal": "72027",
        "Telephone": "02 43 50 26 20",
        "Contact": "BRIGITTE DEHAYE"
      },
      {
        "N_adherent": "MOLE8201",
        "Code_vendeur": "OGR",
        "Nom": "MOLETTA OBRADO CARROSSERIE",
        "Code_pays_region": "FR",
        "Groupe_compta": "FRANCE",
        "Code_postal": "82000",
        "Telephone": "05 63 63 25 76",
        "Contact": "VÉRONIQUE RIOLS"
      },
      {
        "N_adherent": "REGN5020",
        "Code_vendeur": "OGR",
        "Nom": "J RENAULT SAS",
        "Code_pays_region": "FR",
        "Groupe_compta": "FRANCE",
        "Code_postal": "50208",
        "Telephone": "02 33 19 05 05",
        "Contact": "GAELLE CHAUSSAROT"
      },
      {
        "N_adherent": "SORI9900",
        "Code_vendeur": "ADV EXPORT",
        "Nom": "SOR IBERICA",
        "Code_pays_region": "ES",
        "Groupe_compta": "CEE",
        "Code_postal": "46600",
        "Telephone": "00 34 962457700",
        "Contact": "MARTA CARRASCOSA"
      },
      {
        "N_adherent": "TEKN7100",
        "Code_vendeur": "ADV FRANCE",
        "Nom": "TEKNOKIT FRANCE",
        "Code_pays_region": "FR",
        "Groupe_compta": "FRANCE",
        "Code_postal": "71520",
        "Telephone": "03 85 50 95 60",
        "Contact": "CEDRIC BATHO"
      },
      {
        "N_adherent": "TOUT7204",
        "Code_vendeur": "ADV FRANCE",
        "Nom": "TOUTAIN CARROSSERIE SAS",
        "Code_pays_region": "FR",
        "Groupe_compta": "FRANCE",
        "Code_postal": "72202",
        "Telephone": "02 43 94 09 96",
        "Contact": "TEDDY MICHEL"
      },
      {
        "N_adherent": "VIVI6210",
        "Code_vendeur": "OGR",
        "Nom": "VIVIER CARROSSERIE",
        "Code_pays_region": "FR",
        "Groupe_compta": "FRANCE",
        "Code_postal": "62223",
        "Telephone": "03 21 24 04 00",
        "Contact": "Judicaelle"
      }
    ]
    
  ]
  

